COMMENT,ORIGINATOR,NORAD_CAT_ID,OBJECT_NAME,OBJECT_TYPE,CLASSIFICATION_TYPE,INTLDES,EPOCH,EPOCH_MICROSECONDS,MEAN_MOTION,ECCENTRICITY,INCLINATION,RA_OF_ASC_NODE,ARG_OF_PERICENTER,MEAN_ANOMALY,EPHEMERIS_TYPE,ELEMENT_SET_NO,REV_AT_EPOCH,BSTAR,MEAN_MOTION_DOT,MEAN_MOTION_DDOT,FILE,TLE_LINE0,TLE_LINE1,TLE_LINE2,OBJECT_ID,OBJECT_NUMBER,SEMIMAJOR_AXIS,PERIOD,APOGEE,PERIGEE,DECAYED
"GENERATED VIA SPACETRACK.ORG API","18 SPCS","48884","SPACEBEE-101","PAYLOAD","U","21059F","2023-01-10 07:27:57","454560","15.20503873","0.0008287","97.5768","144.7186","104.549","255.6665","0","999","8530","0.00095013","0.00020756","0","3739038","0 SPACEBEE-101","1 48884U 21059F   23010.31108165  .00020756  00000-0  95013-3 0  9991","2 48884  97.5768 144.7186 0008287 104.5490 255.6665 15.20503873 85300","2021-059F","48884","6882.457","94.705","510.025","498.618","0"
"GENERATED VIA SPACETRACK.ORG API","18 SPCS","48884","SPACEBEE-101","PAYLOAD","U","21059F","2023-01-10 15:21:47","37600","15.20517947","0.0008309","97.5768","145.0494","103.2785","256.9377","0","999","8535","0.00095798","0.00020937","0","3739267","0 SPACEBEE-101","1 48884U 21059F   23010.64012775  .00020937  00000-0  95798-3 0  9999","2 48884  97.5768 145.0494 0008309 103.2785 256.9377 15.20517947 85350","2021-059F","48884","6882.414","94.705","509.998","498.561","0"
"GENERATED VIA SPACETRACK.ORG API","18 SPCS","48884","SPACEBEE-101","PAYLOAD","U","21059F","2023-01-11 08:44:11","111136","15.20554756","0.0008361","97.5767","145.777","100.7163","259.5014","0","999","8546","0.0010984","0.00024052","0","3739772","0 SPACEBEE-101","1 48884U 21059F   23011.36401749  .00024052  00000-0  10984-2 0  9997","2 48884  97.5767 145.7770 0008361 100.7163 259.5014 15.20554756 85461","2021-059F","48884","6882.303","94.702","509.922","498.414","0"
"GENERATED VIA SPACETRACK.ORG API","18 SPCS","48884","SPACEBEE-101","PAYLOAD","U","21059F","2023-01-11 08:44:11","111136","15.20554756","0.0008361","97.5767","145.777","100.7163","259.5014","0","999","8546","0.0010984","0.00024052","0","3740054","0 SPACEBEE-101","1 48884U 21059F   23011.36401749  .00024052  00000-0  10984-2 0  9997","2 48884  97.5767 145.7770 0008361 100.7163 259.5014 15.20554756 85461","2021-059F","48884","6882.303","94.702","509.922","498.414","0"
"GENERATED VIA SPACETRACK.ORG API","18 SPCS","48884","SPACEBEE-101","PAYLOAD","U","21059F","2023-01-12 14:44:38","233824","15.20616258","0.0008312","97.5764","147.0335","96.8928","263.3253","0","999","8565","0.0010457","0.00022932","0","3741270","0 SPACEBEE-101","1 48884U 21059F   23012.61433141  .00022932  00000-0  10457-2 0  9997","2 48884  97.5764 147.0335 0008312  96.8928 263.3253 15.20616258 85655","2021-059F","48884","6882.118","94.698","509.703","498.262","0"
"GENERATED VIA SPACETRACK.ORG API","18 SPCS","48884","SPACEBEE-101","PAYLOAD","U","21059F","2023-01-12 14:44:38","233824","15.20616258","0.0008312","97.5764","147.0335","96.8928","263.3253","0","999","8565","0.0010457","0.00022932","0","3742227","0 SPACEBEE-101","1 48884U 21059F   23012.61433141  .00022932  00000-0  10457-2 0  9997","2 48884  97.5764 147.0335 0008312  96.8928 263.3253 15.20616258 85655","2021-059F","48884","6882.118","94.698","509.703","498.262","0"
"GENERATED VIA SPACETRACK.ORG API","18 SPCS","48884","SPACEBEE-101","PAYLOAD","U","21059F","2023-01-13 08:06:58","222368","15.20654487","0.0008263","97.5761","147.7614","94.206","266.012","0","999","8576","0.001157","0.00025417","0","3743417","0 SPACEBEE-101","1 48884U 21059F   23013.33817387  .00025417  00000-0  11570-2 0  9993","2 48884  97.5761 147.7614 0008263  94.2060 266.0120 15.20654487 85764","2021-059F","48884","6882.002","94.696","509.554","498.181","0"
"GENERATED VIA SPACETRACK.ORG API","18 SPCS","48884","SPACEBEE-101","PAYLOAD","U","21059F","2023-01-13 08:06:58","222368","15.20654487","0.0008263","97.5761","147.7614","94.206","266.012","0","999","8576","0.001157","0.00025417","0","3743879","0 SPACEBEE-101","1 48884U 21059F   23013.33817387  .00025417  00000-0  11570-2 0  9993","2 48884  97.5761 147.7614 0008263  94.2060 266.0120 15.20654487 85764","2021-059F","48884","6882.002","94.696","509.554","498.181","0"
"GENERATED VIA SPACETRACK.ORG API","18 SPCS","48884","SPACEBEE-101","PAYLOAD","U","21059F","2023-01-14 07:48:17","329248","15.20716344","0.0008219","97.5759","148.7536","90.7585","269.4591","0","999","8591","0.0015304","0.00033741","0","3744593","0 SPACEBEE-101","1 48884U 21059F   23014.32520057  .00033741  00000-0  15304-2 0  9996","2 48884  97.5759 148.7536 0008219  90.7585 269.4591 15.20716344 85916","2021-059F","48884","6881.816","94.692","509.337","498.024","0"
"GENERATED VIA SPACETRACK.ORG API","18 SPCS","48884","SPACEBEE-101","PAYLOAD","U","21059F","2023-01-15 07:29:33","50112","15.20777615","0.0008273","97.5758","149.7458","87.4337","272.7845","0","999","8606","0.0015646","0.00034563","0","3747091","0 SPACEBEE-101","1 48884U 21059F   23015.31218808  .00034563  00000-0  15646-2 0  9996","2 48884  97.5758 149.7458 0008273  87.4337 272.7845 15.20777615 86061","2021-059F","48884","6881.631","94.688","509.189","497.803","0"
"GENERATED VIA SPACETRACK.ORG API","18 SPCS","48884","SPACEBEE-101","PAYLOAD","U","21059F","2023-01-15 15:23:17","416320","15.20798705","0.0008283","97.5758","150.0763","86.5606","273.6576","0","999","8611","0.0014183","0.0003133","0","3747610","0 SPACEBEE-101","1 48884U 21059F   23015.64117380  .00031330  00000-0  14183-2 0  9999","2 48884  97.5758 150.0763 0008283  86.5606 273.6576 15.20798705 86115","2021-059F","48884","6881.567","94.687","509.132","497.732","0"
"GENERATED VIA SPACETRACK.ORG API","18 SPCS","48884","SPACEBEE-101","PAYLOAD","U","21059F","2023-01-15 21:42:16","601184","15.20823732","0.0008295","97.5758","150.3411","85.6097","274.6086","0","999","8615","0.0017279","0.00038248","0","3748322","0 SPACEBEE-101","1 48884U 21059F   23015.90435881  .00038248  00000-0  17279-2 0  9991","2 48884  97.5758 150.3411 0008295  85.6097 274.6086 15.20823732 86155","2021-059F","48884","6881.492","94.686","509.065","497.648","0"
"GENERATED VIA SPACETRACK.ORG API","18 SPCS","48884","SPACEBEE-101","PAYLOAD","U","21059F","2023-01-16 08:45:29","367072","15.20860617","0.00083","97.5757","150.8042","83.8757","276.3424","0","999","8622","0.0017714","0.0003926","0","3748900","0 SPACEBEE-101","1 48884U 21059F   23016.36492323  .00039260  00000-0  17714-2 0  9995","2 48884  97.5757 150.8042 0008300  83.8757 276.3424 15.20860617 86225","2021-059F","48884","6881.380","94.683","508.957","497.534","0"
"GENERATED VIA SPACETRACK.ORG API","18 SPCS","48884","SPACEBEE-101","PAYLOAD","U","21059F","2023-01-16 15:04:27","748416","15.20873937","0.0008293","97.5759","151.0688","82.9721","277.2457","0","999","8626","0.0014771","0.0003271","0","3749606","0 SPACEBEE-101","1 48884U 21059F   23016.62809894  .00032710  00000-0  14771-2 0  9992","2 48884  97.5759 151.0688 0008293  82.9721 277.2457 15.20873937 86267","2021-059F","48884","6881.340","94.682","508.912","497.499","0"
"GENERATED VIA SPACETRACK.ORG API","18 SPCS","48884","SPACEBEE-101","PAYLOAD","U","21059F","2023-01-16 22:58:10","351200","15.20894735","0.0008279","97.5759","151.3996","81.825","278.3924","0","999","8631","0.001385","0.00030676","0","3751262","0 SPACEBEE-101","1 48884U 21059F   23016.95706425  .00030676  00000-0  13850-2 0  9990","2 48884  97.5759 151.3996 0008279  81.8250 278.3924 15.20894735 86317","2021-059F","48884","6881.277","94.681","508.839","497.445","0"
"GENERATED VIA SPACETRACK.ORG API","18 SPCS","48884","SPACEBEE-101","PAYLOAD","U","21059F","2023-01-17 14:45:34","600320","15.20929292","0.0008255","97.5756","152.0615","79.7043","280.5122","0","999","8641","0.0012684","0.00028106","0","3753023","0 SPACEBEE-101","1 48884U 21059F   23017.61498380  .00028106  00000-0  12684-2 0  9991","2 48884  97.5756 152.0615 0008255  79.7043 280.5122 15.20929292 86413","2021-059F","48884","6881.173","94.679","508.719","497.358","0"
"GENERATED VIA SPACETRACK.ORG API","18 SPCS","48884","SPACEBEE-101","PAYLOAD","U","21059F","2023-01-18 03:23:29","57856","15.20954288","0.0008242","97.5754","152.5908","78.0431","282.1728","0","999","8649","0.0011154","0.00024714","0","3753420","0 SPACEBEE-101","1 48884U 21059F   23018.14130854  .00024714  00000-0  11154-2 0  9991","2 48884  97.5754 152.5908 0008242  78.0431 282.1728 15.20954288 86491","2021-059F","48884","6881.098","94.677","508.634","497.291","0"
"GENERATED VIA SPACETRACK.ORG API","18 SPCS","48884","SPACEBEE-101","PAYLOAD","U","21059F","2023-01-18 14:26:38","434272","15.2098736","0.0008195","97.5754","153.054","76.4254","283.7893","0","999","8656","0.0015087","0.00033525","0","3753951","0 SPACEBEE-101","1 48884U 21059F   23018.60183373  .00033525  00000-0  15087-2 0  9995","2 48884  97.5754 153.0540 0008195  76.4254 283.7893 15.20987360 86566","2021-059F","48884","6880.998","94.675","508.502","497.224","0"
"GENERATED VIA SPACETRACK.ORG API","18 SPCS","48884","SPACEBEE-101","PAYLOAD","U","21059F","2023-01-18 14:26:38","434272","15.2098736","0.0008195","97.5754","153.054","76.4254","283.7893","0","999","8656","0.0015087","0.00033525","0","3754095","0 SPACEBEE-101","1 48884U 21059F   23018.60183373  .00033525  00000-0  15087-2 0  9995","2 48884  97.5754 153.0540 0008195  76.4254 283.7893 15.20987360 86566","2021-059F","48884","6880.998","94.675","508.502","497.224","0"
"GENERATED VIA SPACETRACK.ORG API","18 SPCS","48884","SPACEBEE-101","PAYLOAD","U","21059F","2023-01-18 20:45:34","898400","15.21002401","0.0008184","97.5755","153.3187","75.5722","284.6421","0","999","8660","0.0014008","0.00031125","0","3754254","0 SPACEBEE-101","1 48884U 21059F   23018.86498725  .00031125  00000-0  14008-2 0  9999","2 48884  97.5755 153.3187 0008184  75.5722 284.6421 15.21002401 86602","2021-059F","48884","6880.953","94.674","508.449","497.186","0"
